SPACEMOBILE-006         
1 67232U 25309A   26078.25690522  .00003326  00000+0  17643-3 0  9990
2 67232  52.9975  23.3926 0009784 209.9164 150.1271 15.18088323 12934
